{"type": "FeatureCollection", "features": [ {"type": "Feature", "properties": {"norad_id": 61186, "name": "BEIDOU-3 M25 (C47)", "group": "beidou", "lat": -10.516472795781832, "lon": 135.8750603953083, "alt_km": 21534.199168533454, "timestamp": "2025-12-24T03:53:29.912880+00:00", "meta": {"OBJECT_NAME": "BEIDOU-3 M25 (C47)", "OBJECT_ID": "2024-168B", "EPOCH": "2025-12-23T15:27:08.107776", "MEAN_MOTION": 1.86230111, "ECCENTRICITY": 0.0005435, "INCLINATION": 54.6324, "RA_OF_ASC_NODE": 308.3432, "ARG_OF_PERICENTER": 299.8932, "MEAN_ANOMALY": 265.5562, "EPHEMERIS_TYPE": 0, "CLASSIFICATION_TYPE": "U", "NORAD_CAT_ID": 61186, "ELEMENT_SET_NO": 999, "REV_AT_EPOCH": 851, "BSTAR": 0, "MEAN_MOTION_DOT": -5.4e-07, "MEAN_MOTION_DDOT": 0}, "tle": {"line1": "1 61186U 24168B   25357.64384384 -.00000054  00000+0  00000+0 0  9993", "line2": "2 61186  54.6324 308.3432 0005435 299.8932 265.5562  1.86230111  8518"}}, "geometry": {"type": "Point", "coordinates": [135.8750603953083, -10.516472795781832]}}, {"type": "Feature", "properties": {"norad_id": 61187, "name": "BEIDOU-3 M27 (C49)", "group": "beidou", "lat": -25.690282186631922, "lon": -71.67095615512653, "alt_km": 21524.526700348342, "timestamp": "2025-12-24T03:53:29.912891+00:00", "meta": {"OBJECT_NAME": "BEIDOU-3 M27 (C49)", "OBJECT_ID": "2024-168C", "EPOCH": "2025-12-22T20:59:38.843232", "MEAN_MOTION": 1.8623031, "ECCENTRICITY": 0.0002551, "INCLINATION": 54.6286, "RA_OF_ASC_NODE": 308.3534, "ARG_OF_PERICENTER": 340.6202, "MEAN_ANOMALY": 204.1443, "EPHEMERIS_TYPE": 0, "CLASSIFICATION_TYPE": "U", "NORAD_CAT_ID": 61187, "ELEMENT_SET_NO": 999, "REV_AT_EPOCH": 597, "BSTAR": 0, "MEAN_MOTION_DOT": -5.6e-07, "MEAN_MOTION_DDOT": 0}, "tle": {"line1": "1 61187U 24168C   25356.87475513 -.00000056  00000+0  00000+0 0  9995", "line2": "2 61187  54.6286 308.3534 0002551 340.6202 204.1443  1.86230310  5975"}}, "geometry": {"type": "Point", "coordinates": [-71.67095615512653, -25.690282186631922]}}]}